{
  "norad_id": 60918,
  "name": "STARLINK-32317",
  "history": [
    {
      "epoch": "2026-03-28T17:07:09.106176Z",
      "apogee_km": 476.1512964871181,
      "perigee_km": 474.3358359751237,
      "latitude_deg": -1.5054073705782319e-05,
      "longitude_deg": 112.83885012686854,
      "height_km": 475.7849105531494,
      "semi_major_axis_km": 6853.380566231121,
      "eccentricity": 0.00013245,
      "inclination_deg": 53.1609,
      "raan_deg": 195.7566,
      "arg_perigee_deg": 66.8473,
      "mean_anomaly_deg": 293.2667,
      "mean_motion_rev_day": 15.30190456
    }
  ]
}